CCSDS_OMM_VERS = 2.0
CREATION_DATE  = 
ORIGINATOR     = 

OBJECT_NAME    = DELTA 2 R/B(1)
OBJECT_ID      = 1990-008B
CENTER_NAME    = EARTH
REF_FRAME      = TEME
TIME_SYSTEM    = UTC
MEAN_ELEMENT_THEORY = SGP/SGP4

EPOCH          = 2026-02-05T07:25:58.718496
MEAN_MOTION    = 15.51488253
ECCENTRICITY   = .0096234
INCLINATION    = 35.6065
RA_OF_ASC_NODE = 26.6230
ARG_OF_PERICENTER = 316.9901
MEAN_ANOMALY   = 42.3342

EPHEMERIS_TYPE = 0
CLASSIFICATION_TYPE = U
NORAD_CAT_ID   = 20453
ELEMENT_SET_NO = 999
REV_AT_EPOCH   = 92109
BSTAR          = .11788E-2
MEAN_MOTION_DOT = .88442E-3
MEAN_MOTION_DDOT = 0

CCSDS_OMM_VERS = 2.0
CREATION_DATE  = 
ORIGINATOR     = 

OBJECT_NAME    = COSMOS 2058
OBJECT_ID      = 1990-010A
CENTER_NAME    = EARTH
REF_FRAME      = TEME
TIME_SYSTEM    = UTC
MEAN_ELEMENT_THEORY = SGP/SGP4

EPOCH          = 2026-02-05T14:23:33.170208
MEAN_MOTION    = 15.11025810
ECCENTRICITY   = .00120946
INCLINATION    = 82.4633
RA_OF_ASC_NODE = 79.0409
ARG_OF_PERICENTER = 86.3650
MEAN_ANOMALY   = 273.8963

EPHEMERIS_TYPE = 0
CLASSIFICATION_TYPE = U
NORAD_CAT_ID   = 20465
ELEMENT_SET_NO = 999
REV_AT_EPOCH   = 93739
BSTAR          = .34965335E-3
MEAN_MOTION_DOT = .588E-4
MEAN_MOTION_DDOT = 0

CCSDS_OMM_VERS = 2.0
CREATION_DATE  = 
ORIGINATOR     = 

OBJECT_NAME    = SL-14 R/B
OBJECT_ID      = 1990-010B
CENTER_NAME    = EARTH
REF_FRAME      = TEME
TIME_SYSTEM    = UTC
MEAN_ELEMENT_THEORY = SGP/SGP4

EPOCH          = 2026-02-05T17:12:23.772384
MEAN_MOTION    = 14.83540866
ECCENTRICITY   = .00210191
INCLINATION    = 82.5033
RA_OF_ASC_NODE = 297.4216
ARG_OF_PERICENTER = 48.2185
MEAN_ANOMALY   = 312.0822

EPHEMERIS_TYPE = 0
CLASSIFICATION_TYPE = U
NORAD_CAT_ID   = 20466
ELEMENT_SET_NO = 999
REV_AT_EPOCH   = 92374
BSTAR          = .83840614E-4
MEAN_MOTION_DOT = .716E-5
MEAN_MOTION_DDOT = 0

CCSDS_OMM_VERS = 2.0
CREATION_DATE  = 
ORIGINATOR     = 

OBJECT_NAME    = SL-14 R/B
OBJECT_ID      = 1990-018B
CENTER_NAME    = EARTH
REF_FRAME      = TEME
TIME_SYSTEM    = UTC
MEAN_ELEMENT_THEORY = SGP/SGP4

EPOCH          = 2026-02-05T13:39:10.001664
MEAN_MOTION    = 14.82111913
ECCENTRICITY   = .00159514
INCLINATION    = 82.5185
RA_OF_ASC_NODE = 253.1196
ARG_OF_PERICENTER = 192.9252
MEAN_ANOMALY   = 167.1556

EPHEMERIS_TYPE = 0
CLASSIFICATION_TYPE = U
NORAD_CAT_ID   = 20511
ELEMENT_SET_NO = 999
REV_AT_EPOCH   = 91782
BSTAR          = .68976579E-4
MEAN_MOTION_DOT = .573E-5
MEAN_MOTION_DDOT = 0

CCSDS_OMM_VERS = 2.0
CREATION_DATE  = 
ORIGINATOR     = 

OBJECT_NAME    = HST
OBJECT_ID      = 1990-037B
CENTER_NAME    = EARTH
REF_FRAME      = TEME
TIME_SYSTEM    = UTC
MEAN_ELEMENT_THEORY = SGP/SGP4

EPOCH          = 2026-02-05T16:53:17.822400
MEAN_MOTION    = 15.28970067
ECCENTRICITY   = .00019481
INCLINATION    = 28.4665
RA_OF_ASC_NODE = 258.1179
ARG_OF_PERICENTER = 113.1568
MEAN_ANOMALY   = 246.9233

EPHEMERIS_TYPE = 0
CLASSIFICATION_TYPE = U
NORAD_CAT_ID   = 20580
ELEMENT_SET_NO = 999
REV_AT_EPOCH   = 76841
BSTAR          = .3557764E-3
MEAN_MOTION_DOT = .10539E-3
MEAN_MOTION_DDOT = 0

CCSDS_OMM_VERS = 2.0
CREATION_DATE  = 
ORIGINATOR     = 

OBJECT_NAME    = SL-16 R/B
OBJECT_ID      = 1990-046B
CENTER_NAME    = EARTH
REF_FRAME      = TEME
TIME_SYSTEM    = UTC
MEAN_ELEMENT_THEORY = SGP/SGP4

EPOCH          = 2026-02-05T14:28:28.208928
MEAN_MOTION    = 14.15005196
ECCENTRICITY   = .00145532
INCLINATION    = 70.9998
RA_OF_ASC_NODE = 5.2981
ARG_OF_PERICENTER = 344.2007
MEAN_ANOMALY   = 15.8660

EPHEMERIS_TYPE = 0
CLASSIFICATION_TYPE = U
NORAD_CAT_ID   = 20625
ELEMENT_SET_NO = 999
REV_AT_EPOCH   = 84385
BSTAR          = .50567742E-4
MEAN_MOTION_DOT = .5E-6
MEAN_MOTION_DDOT = 0

CCSDS_OMM_VERS = 2.0
CREATION_DATE  = 
ORIGINATOR     = 

OBJECT_NAME    = COSMOS 2084
OBJECT_ID      = 1990-055A
CENTER_NAME    = EARTH
REF_FRAME      = TEME
TIME_SYSTEM    = UTC
MEAN_ELEMENT_THEORY = SGP/SGP4

EPOCH          = 2026-02-05T13:48:02.771712
MEAN_MOTION    = 15.05443605
ECCENTRICITY   = .00221818
INCLINATION    = 62.7896
RA_OF_ASC_NODE = 85.0929
ARG_OF_PERICENTER = 183.3057
MEAN_ANOMALY   = 176.7900

EPHEMERIS_TYPE = 0
CLASSIFICATION_TYPE = U
NORAD_CAT_ID   = 20663
ELEMENT_SET_NO = 999
REV_AT_EPOCH   = 93148
BSTAR          = .29808324E-3
MEAN_MOTION_DOT = .4122E-4
MEAN_MOTION_DDOT = 0

CCSDS_OMM_VERS = 2.0
CREATION_DATE  = 
ORIGINATOR     = 

OBJECT_NAME    = SL-6 R/B(2)
OBJECT_ID      = 1990-055D
CENTER_NAME    = EARTH
REF_FRAME      = TEME
TIME_SYSTEM    = UTC
MEAN_ELEMENT_THEORY = SGP/SGP4

EPOCH          = 2026-02-05T07:33:13.391712
MEAN_MOTION    = 15.03418145
ECCENTRICITY   = .0019951
INCLINATION    = 62.7851
RA_OF_ASC_NODE = 3.9306
ARG_OF_PERICENTER = 337.5810
MEAN_ANOMALY   = 22.4416

EPHEMERIS_TYPE = 0
CLASSIFICATION_TYPE = U
NORAD_CAT_ID   = 20666
ELEMENT_SET_NO = 999
REV_AT_EPOCH   = 93332
BSTAR          = .31756E-3
MEAN_MOTION_DOT = .4162E-4
MEAN_MOTION_DDOT = 0

CCSDS_OMM_VERS = 2.0
CREATION_DATE  = 
ORIGINATOR     = 

OBJECT_NAME    = SL-8 R/B
OBJECT_ID      = 1990-078B
CENTER_NAME    = EARTH
REF_FRAME      = TEME
TIME_SYSTEM    = UTC
MEAN_ELEMENT_THEORY = SGP/SGP4

EPOCH          = 2026-02-05T15:28:37.647552
MEAN_MOTION    = 14.87999668
ECCENTRICITY   = .03672714
INCLINATION    = 82.9024
RA_OF_ASC_NODE = 280.1044
ARG_OF_PERICENTER = 121.3590
MEAN_ANOMALY   = 242.4120

EPHEMERIS_TYPE = 0
CLASSIFICATION_TYPE = U
NORAD_CAT_ID   = 20775
ELEMENT_SET_NO = 999
REV_AT_EPOCH   = 80453
BSTAR          = .63811306E-3
MEAN_MOTION_DOT = .21588E-3
MEAN_MOTION_DDOT = 0

CCSDS_OMM_VERS = 2.0
CREATION_DATE  = 
ORIGINATOR     = 

OBJECT_NAME    = SL-8 R/B
OBJECT_ID      = 1991-006B
CENTER_NAME    = EARTH
REF_FRAME      = TEME
TIME_SYSTEM    = UTC
MEAN_ELEMENT_THEORY = SGP/SGP4

EPOCH          = 2026-02-05T12:27:41.785632
MEAN_MOTION    = 13.77491884
ECCENTRICITY   = .00235314
INCLINATION    = 82.9426
RA_OF_ASC_NODE = 193.9640
ARG_OF_PERICENTER = 123.8706
MEAN_ANOMALY   = 298.8503

EPHEMERIS_TYPE = 0
CLASSIFICATION_TYPE = U
NORAD_CAT_ID   = 21088
ELEMENT_SET_NO = 999
REV_AT_EPOCH   = 75964
BSTAR          = -.15020555E-4
MEAN_MOTION_DOT = .1E-7
MEAN_MOTION_DDOT = 0

CCSDS_OMM_VERS = 2.0
CREATION_DATE  = 
ORIGINATOR     = 

OBJECT_NAME    = OKEAN-3
OBJECT_ID      = 1991-039A
CENTER_NAME    = EARTH
REF_FRAME      = TEME
TIME_SYSTEM    = UTC
MEAN_ELEMENT_THEORY = SGP/SGP4

EPOCH          = 2026-02-05T15:00:35.705664
MEAN_MOTION    = 15.04550322
ECCENTRICITY   = .00164104
INCLINATION    = 82.5182
RA_OF_ASC_NODE = 7.8968
ARG_OF_PERICENTER = 81.7140
MEAN_ANOMALY   = 278.5947

EPHEMERIS_TYPE = 0
CLASSIFICATION_TYPE = U
NORAD_CAT_ID   = 21397
ELEMENT_SET_NO = 999
REV_AT_EPOCH   = 86021
BSTAR          = .38793458E-3
MEAN_MOTION_DOT = .5481E-4
MEAN_MOTION_DDOT = 0

CCSDS_OMM_VERS = 2.0
CREATION_DATE  = 
ORIGINATOR     = 

OBJECT_NAME    = COSMOS 2151
OBJECT_ID      = 1991-042A
CENTER_NAME    = EARTH
REF_FRAME      = TEME
TIME_SYSTEM    = UTC
MEAN_ELEMENT_THEORY = SGP/SGP4

EPOCH          = 2026-02-05T15:56:22.268832
MEAN_MOTION    = 14.99980845
ECCENTRICITY   = .00130749
INCLINATION    = 82.4967
RA_OF_ASC_NODE = 114.5681
ARG_OF_PERICENTER = 161.3266
MEAN_ANOMALY   = 198.8440

EPHEMERIS_TYPE = 0
CLASSIFICATION_TYPE = U
NORAD_CAT_ID   = 21422
ELEMENT_SET_NO = 999
REV_AT_EPOCH   = 85839
BSTAR          = .22618802E-3
MEAN_MOTION_DOT = .2841E-4
MEAN_MOTION_DDOT = 0

