DELTA 2 R/B(1)          
1 20453U 90008B   26036.30970739  .00088442  00000+0  11788-2 0  9998
2 20453  35.6065  26.6230 0096234 316.9901  42.3342 15.51488253921094
COSMOS 2058             
1 20465U 90010A   26036.59968947  .00005880  00000+0  34965-3 0  9991
2 20465  82.4633  79.0409 0012094  86.3650 273.8963 15.11025810937391
SL-14 R/B               
1 20466U 90010B   26036.71694181  .00000716  00000+0  83841-4 0  9993
2 20466  82.5033 297.4216 0021019  48.2185 312.0822 14.83540866923741
SL-14 R/B               
1 20511U 90018B   26036.56886576  .00000573  00000+0  68977-4 0  9990
2 20511  82.5185 253.1196 0015951 192.9252 167.1556 14.82111913917827
HST                     
1 20580U 90037B   26036.70367850  .00010539  00000+0  35578-3 0  9995
2 20580  28.4665 258.1179 0001948 113.1568 246.9233 15.28970067768418
SL-16 R/B               
1 20625U 90046B   26036.60310427  .00000050  00000+0  50568-4 0  9996
2 20625  70.9998   5.2981 0014553 344.2007  15.8660 14.15005196843858
COSMOS 2084             
1 20663U 90055A   26036.57503208  .00004122  00000+0  29808-3 0  9991
2 20663  62.7896  85.0929 0022181 183.3057 176.7900 15.05443605931489
SL-6 R/B(2)             
1 20666U 90055D   26036.31473833  .00004162  00000+0  31756-3 0  9995
2 20666  62.7851   3.9306 0019951 337.5810  22.4416 15.03418145933325
SL-8 R/B                
1 20775U 90078B   26036.64488018  .00021588  00000+0  63811-3 0  9996
2 20775  82.9024 280.1044 0367271 121.3590 242.4120 14.87999668804536
SL-8 R/B                
1 21088U 91006B   26036.51923363  .00000001  00000+0 -15021-4 0  9998
2 21088  82.9426 193.9640 0023531 123.8706 298.8503 13.77491884759643
OKEAN-3                 
1 21397U 91039A   26036.62541326  .00005481  00000+0  38793-3 0  9990
2 21397  82.5182   7.8968 0016410  81.7140 278.5947 15.04550322860217
COSMOS 2151             
1 21422U 91042A   26036.66414663  .00002841  00000+0  22619-3 0  9997
2 21422  82.4967 114.5681 0013074 161.3266 198.8440 14.99980845858399
